[{"OBJECT_NAME":"AETHER-12","OBJECT_ID":"2026-004W","EPOCH":"2026-03-09T23:36:30.678624","MEAN_MOTION":14.8783269,"ECCENTRICITY":0.00067724,"INCLINATION":97.8006,"RA_OF_ASC_NODE":69.1805,"ARG_OF_PERICENTER":98.9277,"MEAN_ANOMALY":261.2706,"EPHEMERIS_TYPE":0,"CLASSIFICATION_TYPE":"U","NORAD_CAT_ID":67383,"ELEMENT_SET_NO":999,"REV_AT_EPOCH":853,"BSTAR":0.00015033861,"MEAN_MOTION_DOT":1.32e-5,"MEAN_MOTION_DDOT":0},{"OBJECT_NAME":"CZ-6A DEB","OBJECT_ID":"2024-140VD","EPOCH":"2026-03-09T13:59:50.309088","MEAN_MOTION":14.67840458,"ECCENTRICITY":0.0170049,"INCLINATION":89.0158,"RA_OF_ASC_NODE":282.3552,"ARG_OF_PERICENTER":150.1699,"MEAN_ANOMALY":210.9347,"EPHEMERIS_TYPE":0,"CLASSIFICATION_TYPE":"U","NORAD_CAT_ID":61340,"ELEMENT_SET_NO":999,"REV_AT_EPOCH":8091,"BSTAR":0.00043795,"MEAN_MOTION_DOT":3.137e-5,"MEAN_MOTION_DDOT":0}]
